{
    "links": {
        "self": "http://www.neowsapp.com/rest/v1/neo/54017577?api_key=iIulBulltgU6a56xZRHN4H3l9WmuAYTsLGpBGhQ2"
    },
    "id": "54017577",
    "neo_reference_id": "54017577",
    "name": "(2020 MO1)",
    "designation": "2020 MO1",
    "nasa_jpl_url": "http://ssd.jpl.nasa.gov/sbdb.cgi?sstr=54017577",
    "absolute_magnitude_h": 23.386,
    "estimated_diameter": {
        "kilometers": {
            "estimated_diameter_min": 0.0558926855,
            "estimated_diameter_max": 0.1249798442
        },
        "meters": {
            "estimated_diameter_min": 55.8926854685,
            "estimated_diameter_max": 124.9798441525
        },
        "miles": {
            "estimated_diameter_min": 0.0347300939,
            "estimated_diameter_max": 0.0776588507
        },
        "feet": {
            "estimated_diameter_min": 183.3749581924,
            "estimated_diameter_max": 410.0388718893
        }
    },
    "is_potentially_hazardous_asteroid": false,
    "close_approach_data": [
        {
            "close_approach_date": "1945-06-30",
            "close_approach_date_full": "1945-Jun-30 02:13",
            "epoch_date_close_approach": -773358420000,
            "relative_velocity": {
                "kilometers_per_second": "18.3260434706",
                "kilometers_per_hour": "65973.7564940718",
                "miles_per_hour": "40993.5266393303"
            },
            "miss_distance": {
                "astronomical": "0.0272379066",
                "lunar": "10.5955456674",
                "kilometers": "4074732.810618942",
                "miles": "2531921.5617557196"
            },
            "orbiting_body": "Earth"
        },
        {
            "close_approach_date": "2015-12-10",
            "close_approach_date_full": "2015-Dec-10 01:40",
            "epoch_date_close_approach": 1449711600000,
            "relative_velocity": {
                "kilometers_per_second": "17.8489551482",
                "kilometers_per_hour": "64256.2385335351",
                "miles_per_hour": "39926.327771018"
            },
            "miss_distance": {
                "astronomical": "0.0757933132",
                "lunar": "29.4835988348",
                "kilometers": "11338518.214962884",
                "miles": "7045428.5179164392"
            },
            "orbiting_body": "Earth"
        },
        {
            "close_approach_date": "2020-07-10",
            "close_approach_date_full": "2020-Jul-10 09:03",
            "epoch_date_close_approach": 1594371780000,
            "relative_velocity": {
                "kilometers_per_second": "14.7980761032",
                "kilometers_per_hour": "53273.0739713836",
                "miles_per_hour": "33101.8164351633"
            },
            "miss_distance": {
                "astronomical": "0.1025977312",
                "lunar": "39.9105174368",
                "kilometers": "15348402.054352544",
                "miles": "9537054.7974673472"
            },
            "orbiting_body": "Earth"
        },
        {
            "close_approach_date": "2025-06-10",
            "close_approach_date_full": "2025-Jun-10 19:13",
            "epoch_date_close_approach": 1749582780000,
            "relative_velocity": {
                "kilometers_per_second": "18.4996920478",
                "kilometers_per_hour": "66598.891372228",
                "miles_per_hour": "41381.9611418158"
            },
            "miss_distance": {
                "astronomical": "0.1411966141",
                "lunar": "54.9254828849",
                "kilometers": "21122712.720571967",
                "miles": "13125045.0681364646"
            },
            "orbiting_body": "Venus"
        },
        {
            "close_approach_date": "2091-01-02",
            "close_approach_date_full": "2091-Jan-02 21:26",
            "epoch_date_close_approach": 3818611560000,
            "relative_velocity": {
                "kilometers_per_second": "32.0076127091",
                "kilometers_per_hour": "115227.4057527492",
                "miles_per_hour": "71597.8288689791"
            },
            "miss_distance": {
                "astronomical": "0.4911461739",
                "lunar": "191.0558616471",
                "kilometers": "73474421.474089593",
                "miles": "45654888.4586906634"
            },
            "orbiting_body": "Earth"
        }
    ],
    "orbital_data": {
        "orbit_id": "3",
        "orbit_determination_date": "2020-09-08 06:50:48",
        "first_observation_date": "2020-06-13",
        "last_observation_date": "2020-06-27",
        "data_arc_in_days": 14,
        "observations_used": 24,
        "orbit_uncertainty": "7",
        "minimum_orbit_intersection": ".00243184",
        "jupiter_tisserand_invariant": "3.807",
        "epoch_osculation": "2459000.5",
        "eccentricity": ".6074849399052888",
        "semi_major_axis": "1.802906508321303",
        "inclination": "10.00463549912089",
        "ascending_node_longitude": "101.2433654776656",
        "orbital_period": "884.2157299384197",
        "perihelion_distance": ".7076679564588819",
        "perihelion_argument": "257.8465227809154",
        "aphelion_distance": "2.898145060183723",
        "perihelion_time": "2459087.601978829056",
        "mean_anomaly": "324.5372601767172",
        "mean_motion": ".4071404611011295",
        "equinox": "J2000",
        "orbit_class": {
            "orbit_class_type": "APO",
            "orbit_class_description": "Near-Earth asteroid orbits which cross the Earth’s orbit similar to that of 1862 Apollo",
            "orbit_class_range": "a (semi-major axis) > 1.0 AU; q (perihelion) < 1.017 AU"
        }
    },
    "is_sentry_object": false
}